CCSDS_OMM_VERS = 2.0
CREATION_DATE  = 
ORIGINATOR     = 

OBJECT_NAME    = STARLINK-36844
OBJECT_ID      = 2026-044S
CENTER_NAME    = EARTH
REF_FRAME      = TEME
TIME_SYSTEM    = UTC
MEAN_ELEMENT_THEORY = SGP/SGP4

EPOCH          = 2026-04-01T12:00:00.998784
MEAN_MOTION    = 15.62600981
ECCENTRICITY   = .0001927
INCLINATION    = 97.2855
RA_OF_ASC_NODE = 52.7604
ARG_OF_PERICENTER = 108.4936
MEAN_ANOMALY   = 145.6096

EPHEMERIS_TYPE = 0
CLASSIFICATION_TYPE = U
NORAD_CAT_ID   = 68117
ELEMENT_SET_NO = 999
REV_AT_EPOCH   = 502
BSTAR          = -.25198E-1
MEAN_MOTION_DOT = -.197863E-1
MEAN_MOTION_DDOT = 0

CCSDS_OMM_VERS = 2.0
CREATION_DATE  = 
ORIGINATOR     = 

OBJECT_NAME    = STARLINK-36789
OBJECT_ID      = 2026-044T
CENTER_NAME    = EARTH
REF_FRAME      = TEME
TIME_SYSTEM    = UTC
MEAN_ELEMENT_THEORY = SGP/SGP4

EPOCH          = 2026-04-01T12:00:00.998784
MEAN_MOTION    = 15.63433875
ECCENTRICITY   = .0001841
INCLINATION    = 97.2855
RA_OF_ASC_NODE = 52.7650
ARG_OF_PERICENTER = 112.5840
MEAN_ANOMALY   = 152.2081

EPHEMERIS_TYPE = 0
CLASSIFICATION_TYPE = U
NORAD_CAT_ID   = 68118
ELEMENT_SET_NO = 999
REV_AT_EPOCH   = 502
BSTAR          = -.24461E-1
MEAN_MOTION_DOT = -.1983957E-1
MEAN_MOTION_DDOT = 0

CCSDS_OMM_VERS = 2.0
CREATION_DATE  = 
ORIGINATOR     = 

OBJECT_NAME    = STARLINK-36850
OBJECT_ID      = 2026-044U
CENTER_NAME    = EARTH
REF_FRAME      = TEME
TIME_SYSTEM    = UTC
MEAN_ELEMENT_THEORY = SGP/SGP4

EPOCH          = 2026-04-01T12:00:00.998784
MEAN_MOTION    = 15.63449543
ECCENTRICITY   = .0001869
INCLINATION    = 97.2855
RA_OF_ASC_NODE = 52.7661
ARG_OF_PERICENTER = 111.3276
MEAN_ANOMALY   = 155.5967

EPHEMERIS_TYPE = 0
CLASSIFICATION_TYPE = U
NORAD_CAT_ID   = 68119
ELEMENT_SET_NO = 999
REV_AT_EPOCH   = 502
BSTAR          = -.24465E-1
MEAN_MOTION_DOT = -.1985361E-1
MEAN_MOTION_DDOT = 0

CCSDS_OMM_VERS = 2.0
CREATION_DATE  = 
ORIGINATOR     = 

OBJECT_NAME    = STARLINK-36868
OBJECT_ID      = 2026-044V
CENTER_NAME    = EARTH
REF_FRAME      = TEME
TIME_SYSTEM    = UTC
MEAN_ELEMENT_THEORY = SGP/SGP4

EPOCH          = 2026-04-01T12:00:00.998784
MEAN_MOTION    = 15.63997751
ECCENTRICITY   = .0001798
INCLINATION    = 97.2856
RA_OF_ASC_NODE = 52.7710
ARG_OF_PERICENTER = 111.1634
MEAN_ANOMALY   = 169.1408

EPHEMERIS_TYPE = 0
CLASSIFICATION_TYPE = U
NORAD_CAT_ID   = 68120
ELEMENT_SET_NO = 999
REV_AT_EPOCH   = 502
BSTAR          = -.23972E-1
MEAN_MOTION_DOT = -.1987626E-1
MEAN_MOTION_DDOT = 0

CCSDS_OMM_VERS = 2.0
CREATION_DATE  = 
ORIGINATOR     = 

OBJECT_NAME    = STARLINK-36855
OBJECT_ID      = 2026-044W
CENTER_NAME    = EARTH
REF_FRAME      = TEME
TIME_SYSTEM    = UTC
MEAN_ELEMENT_THEORY = SGP/SGP4

EPOCH          = 2026-04-01T12:00:00.998784
MEAN_MOTION    = 15.62550320
ECCENTRICITY   = .0001659
INCLINATION    = 97.2853
RA_OF_ASC_NODE = 52.7666
ARG_OF_PERICENTER = 108.4089
MEAN_ANOMALY   = 161.1454

EPHEMERIS_TYPE = 0
CLASSIFICATION_TYPE = U
NORAD_CAT_ID   = 68121
ELEMENT_SET_NO = 999
REV_AT_EPOCH   = 502
BSTAR          = -.25291E-1
MEAN_MOTION_DOT = -.1981406E-1
MEAN_MOTION_DDOT = 0

CCSDS_OMM_VERS = 2.0
CREATION_DATE  = 
ORIGINATOR     = 

OBJECT_NAME    = STARLINK-36366
OBJECT_ID      = 2026-044X
CENTER_NAME    = EARTH
REF_FRAME      = TEME
TIME_SYSTEM    = UTC
MEAN_ELEMENT_THEORY = SGP/SGP4

EPOCH          = 2026-04-01T12:00:00.998784
MEAN_MOTION    = 15.62857358
ECCENTRICITY   = .0001778
INCLINATION    = 97.2855
RA_OF_ASC_NODE = 52.7696
ARG_OF_PERICENTER = 114.7246
MEAN_ANOMALY   = 160.0990

EPHEMERIS_TYPE = 0
CLASSIFICATION_TYPE = U
NORAD_CAT_ID   = 68122
ELEMENT_SET_NO = 999
REV_AT_EPOCH   = 507
BSTAR          = -.25028E-1
MEAN_MOTION_DOT = -.1984274E-1
MEAN_MOTION_DDOT = 0

CCSDS_OMM_VERS = 2.0
CREATION_DATE  = 
ORIGINATOR     = 

OBJECT_NAME    = STARLINK-36922
OBJECT_ID      = 2026-044Y
CENTER_NAME    = EARTH
REF_FRAME      = TEME
TIME_SYSTEM    = UTC
MEAN_ELEMENT_THEORY = SGP/SGP4

EPOCH          = 2026-04-01T12:00:00.998784
MEAN_MOTION    = 15.63369972
ECCENTRICITY   = .0001825
INCLINATION    = 97.2857
RA_OF_ASC_NODE = 52.7782
ARG_OF_PERICENTER = 111.3795
MEAN_ANOMALY   = 182.6904

EPHEMERIS_TYPE = 0
CLASSIFICATION_TYPE = U
NORAD_CAT_ID   = 68123
ELEMENT_SET_NO = 999
REV_AT_EPOCH   = 507
BSTAR          = -.24714E-1
MEAN_MOTION_DOT = -.1997558E-1
MEAN_MOTION_DDOT = 0

CCSDS_OMM_VERS = 2.0
CREATION_DATE  = 
ORIGINATOR     = 

OBJECT_NAME    = STARLINK-36938
OBJECT_ID      = 2026-044Z
CENTER_NAME    = EARTH
REF_FRAME      = TEME
TIME_SYSTEM    = UTC
MEAN_ELEMENT_THEORY = SGP/SGP4

EPOCH          = 2026-04-01T09:59:34.990080
MEAN_MOTION    = 15.75234691
ECCENTRICITY   = .000215
INCLINATION    = 97.2853
RA_OF_ASC_NODE = 52.7672
ARG_OF_PERICENTER = 101.4283
MEAN_ANOMALY   = 258.7223

EPHEMERIS_TYPE = 0
CLASSIFICATION_TYPE = U
NORAD_CAT_ID   = 68124
ELEMENT_SET_NO = 999
REV_AT_EPOCH   = 506
BSTAR          = .13141E-2
MEAN_MOTION_DOT = .200947E-2
MEAN_MOTION_DDOT = 0

CCSDS_OMM_VERS = 2.0
CREATION_DATE  = 
ORIGINATOR     = 

OBJECT_NAME    = STARLINK-36839
OBJECT_ID      = 2026-044AA
CENTER_NAME    = EARTH
REF_FRAME      = TEME
TIME_SYSTEM    = UTC
MEAN_ELEMENT_THEORY = SGP/SGP4

EPOCH          = 2026-04-01T12:00:00.998784
MEAN_MOTION    = 15.63404210
ECCENTRICITY   = .0001668
INCLINATION    = 97.2857
RA_OF_ASC_NODE = 52.7757
ARG_OF_PERICENTER = 107.4229
MEAN_ANOMALY   = 181.0514

EPHEMERIS_TYPE = 0
CLASSIFICATION_TYPE = U
NORAD_CAT_ID   = 68125
ELEMENT_SET_NO = 999
REV_AT_EPOCH   = 502
BSTAR          = -.24465E-1
MEAN_MOTION_DOT = -.1982025E-1
MEAN_MOTION_DDOT = 0

CCSDS_OMM_VERS = 2.0
CREATION_DATE  = 
ORIGINATOR     = 

OBJECT_NAME    = ECHOSTAR 25
OBJECT_ID      = 2026-045A
CENTER_NAME    = EARTH
REF_FRAME      = TEME
TIME_SYSTEM    = UTC
MEAN_ELEMENT_THEORY = SGP/SGP4

EPOCH          = 2026-04-01T12:19:38.729280
MEAN_MOTION    = 1.00284227
ECCENTRICITY   = .0002684
INCLINATION    = 0.0437
RA_OF_ASC_NODE = 281.4877
ARG_OF_PERICENTER = 130.8268
MEAN_ANOMALY   = 193.6166

EPHEMERIS_TYPE = 0
CLASSIFICATION_TYPE = U
NORAD_CAT_ID   = 68126
ELEMENT_SET_NO = 999
REV_AT_EPOCH   = 22
BSTAR          = 0
MEAN_MOTION_DOT = .47E-6
MEAN_MOTION_DDOT = 0

CCSDS_OMM_VERS = 2.0
CREATION_DATE  = 
ORIGINATOR     = 

OBJECT_NAME    = ICOR SV
OBJECT_ID      = 2026-046A
CENTER_NAME    = EARTH
REF_FRAME      = TEME
TIME_SYSTEM    = UTC
MEAN_ELEMENT_THEORY = SGP/SGP4

EPOCH          = 2026-04-01T09:33:10.452960
MEAN_MOTION    = 15.97511256
ECCENTRICITY   = .0095171
INCLINATION    = 123.0741
RA_OF_ASC_NODE = 309.5953
ARG_OF_PERICENTER = 229.4832
MEAN_ANOMALY   = 129.7923

EPHEMERIS_TYPE = 0
CLASSIFICATION_TYPE = U
NORAD_CAT_ID   = 68127
ELEMENT_SET_NO = 999
REV_AT_EPOCH   = 321
BSTAR          = .62331E-3
MEAN_MOTION_DOT = .46691E-2
MEAN_MOTION_DDOT = .122E-4

CCSDS_OMM_VERS = 2.0
CREATION_DATE  = 
ORIGINATOR     = 

OBJECT_NAME    = FIREFLY ALPHA R/B
OBJECT_ID      = 2026-046B
CENTER_NAME    = EARTH
REF_FRAME      = TEME
TIME_SYSTEM    = UTC
MEAN_ELEMENT_THEORY = SGP/SGP4

EPOCH          = 2026-04-01T11:56:08.598336
MEAN_MOTION    = 15.57577138
ECCENTRICITY   = .0016875
INCLINATION    = 123.0931
RA_OF_ASC_NODE = 305.6451
ARG_OF_PERICENTER = 25.1208
MEAN_ANOMALY   = 335.0671

EPHEMERIS_TYPE = 0
CLASSIFICATION_TYPE = U
NORAD_CAT_ID   = 68128
ELEMENT_SET_NO = 999
REV_AT_EPOCH   = 319
BSTAR          = .54722E-3
MEAN_MOTION_DOT = .41019E-3
MEAN_MOTION_DDOT = 0

CCSDS_OMM_VERS = 2.0
CREATION_DATE  = 
ORIGINATOR     = 

OBJECT_NAME    = GUOWANG GROUP 20 OBJECT A
OBJECT_ID      = 2026-047A
CENTER_NAME    = EARTH
REF_FRAME      = TEME
TIME_SYSTEM    = UTC
MEAN_ELEMENT_THEORY = SGP/SGP4

EPOCH          = 2026-03-31T17:03:07.907616
MEAN_MOTION    = 13.88489168
ECCENTRICITY   = .0000464
INCLINATION    = 50.0066
RA_OF_ASC_NODE = 341.2412
ARG_OF_PERICENTER = 148.3832
MEAN_ANOMALY   = 211.7094

EPHEMERIS_TYPE = 0
CLASSIFICATION_TYPE = U
NORAD_CAT_ID   = 68129
ELEMENT_SET_NO = 999
REV_AT_EPOCH   = 265
BSTAR          = .43305E-4
MEAN_MOTION_DOT = -.93E-6
MEAN_MOTION_DDOT = 0

CCSDS_OMM_VERS = 2.0
CREATION_DATE  = 
ORIGINATOR     = 

OBJECT_NAME    = GUOWANG GROUP 20 OBJECT B
OBJECT_ID      = 2026-047B
CENTER_NAME    = EARTH
REF_FRAME      = TEME
TIME_SYSTEM    = UTC
MEAN_ELEMENT_THEORY = SGP/SGP4

EPOCH          = 2026-04-01T05:04:40.455840
MEAN_MOTION    = 13.87767313
ECCENTRICITY   = .0000134
INCLINATION    = 50.0054
RA_OF_ASC_NODE = 339.2252
ARG_OF_PERICENTER = 185.6237
MEAN_ANOMALY   = 174.4659

EPHEMERIS_TYPE = 0
CLASSIFICATION_TYPE = U
NORAD_CAT_ID   = 68130
ELEMENT_SET_NO = 999
REV_AT_EPOCH   = 271
BSTAR          = .69791E-4
MEAN_MOTION_DOT = -.62E-6
MEAN_MOTION_DDOT = 0

CCSDS_OMM_VERS = 2.0
CREATION_DATE  = 
ORIGINATOR     = 

OBJECT_NAME    = GUOWANG GROUP 20 OBJECT C
OBJECT_ID      = 2026-047C
CENTER_NAME    = EARTH
REF_FRAME      = TEME
TIME_SYSTEM    = UTC
MEAN_ELEMENT_THEORY = SGP/SGP4

EPOCH          = 2026-04-01T05:00:48.228192
MEAN_MOTION    = 13.87894948
ECCENTRICITY   = .0000875
INCLINATION    = 50.0021
RA_OF_ASC_NODE = 339.2042
ARG_OF_PERICENTER = 237.7296
MEAN_ANOMALY   = 122.3517

EPHEMERIS_TYPE = 0
CLASSIFICATION_TYPE = U
NORAD_CAT_ID   = 68131
ELEMENT_SET_NO = 999
REV_AT_EPOCH   = 272
BSTAR          = .40523E-4
MEAN_MOTION_DOT = -.97E-6
MEAN_MOTION_DDOT = 0

